******** Week 220 almanac for PRN-15********
ID:                             15 
Health:                         0 
Eccentricity:                   1.52629122414103e-16
Time of Applicability(s):       259200
Orbital Inclination(rad):       1.13446401379631e+00
Rate of Right Ascen(r/s):       0.00000000000000e+00
SQRT(A)  (m 1/2):               2.89450116600426e+03
Right Ascen at Week(rad):       -2.44346095279206e+00
Argument of Perigee(rad):       0.00000000000000e+00
Mean Anom(rad):                 1.73563297837214e+00
Af0(s):                         0.00000000000000e+00
Af1(s/s):                       0.00000000000000e+00
week:                           220
Af1(s/s):                       0.00000000000000e+00
******** Week 220 almanac for PRN-16********
ID:                             16 
Health:                         0 
Eccentricity:                   1.74626028124882e-16
Time of Applicability(s):       259200
Orbital Inclination(rad):       1.13446401379631e+00
Rate of Right Ascen(r/s):       0.00000000000000e+00
SQRT(A)  (m 1/2):               2.89450116600426e+03
Right Ascen at Week(rad):       -1.74532925199433e+00
Argument of Perigee(rad):       0.00000000000000e+00
Mean Anom(rad):                 4.16939765754201e-01
Af0(s):                         0.00000000000000e+00
Af1(s/s):                       0.00000000000000e+00
week:                           220
Af1(s/s):                       0.00000000000000e+00
******** Week 220 almanac for PRN-17********
ID:                             17 
Health:                         0 
Eccentricity:                   1.49348163230082e-16
Time of Applicability(s):       259200
Orbital Inclination(rad):       1.13446401379631e+00
Rate of Right Ascen(r/s):       0.00000000000000e+00
SQRT(A)  (m 1/2):               2.89450116600426e+03
Right Ascen at Week(rad):       -3.49065850398866e-01
Argument of Perigee(rad):       0.00000000000000e+00
Mean Anom(rad):                 -1.52231495868394e+00
Af0(s):                         0.00000000000000e+00
Af1(s/s):                       0.00000000000000e+00
week:                           220
Af1(s/s):                       0.00000000000000e+00
******** Week 220 almanac for PRN-18********
ID:                             18 
Health:                         0 
Eccentricity:                   0.00000000000000e+00
Time of Applicability(s):       259200
Orbital Inclination(rad):       9.77384381116825e-01
Rate of Right Ascen(r/s):       0.00000000000000e+00
SQRT(A)  (m 1/2):               5.44058820349418e+03
Right Ascen at Week(rad):       1.48352986419518e+00
Argument of Perigee(rad):       0.00000000000000e+00
Mean Anom(rad):                 9.30260491312978e-01
Af0(s):                         0.00000000000000e+00
Af1(s/s):                       0.00000000000000e+00
week:                           220
******** Week 220 almanac for PRN-19********
ID:                             19 
Health:                         0 
Eccentricity:                   6.29531619126458e-17
Time of Applicability(s):       259200
Orbital Inclination(rad):       1.13446401379631e+00
Rate of Right Ascen(r/s):       0.00000000000000e+00
SQRT(A)  (m 1/2):               2.89450116600426e+03
Right Ascen at Week(rad):       3.49065850398866e-01
Argument of Perigee(rad):       0.00000000000000e+00
Mean Anom(rad):                 -2.14287647050415e+00
Af0(s):                         0.00000000000000e+00
Af1(s/s):                       0.00000000000000e+00
week:                           220
Af1(s/s):                       0.00000000000000e+00
******** Week 220 almanac for PRN-20********
ID:                             20 
Health:                         0 
Eccentricity:                   0.00000000000000e+00
Time of Applicability(s):       259200
Orbital Inclination(rad):       9.77384381116825e-01
Rate of Right Ascen(r/s):       0.00000000000000e+00
SQRT(A)  (m 1/2):               5.44058820349418e+03
Right Ascen at Week(rad):       1.48352986419518e+00
Argument of Perigee(rad):       0.00000000000000e+00
Mean Anom(rad):                 2.50105681810787e+00
Af0(s):                         0.00000000000000e+00
Af1(s/s):                       0.00000000000000e+00
week:                           220
******** Week 220 almanac for PRN-21********
ID:                             21 
Health:                         0 
Eccentricity:                   1.52629122414103e-16
Time of Applicability(s):       259200
Orbital Inclination(rad):       1.13446401379631e+00
Rate of Right Ascen(r/s):       0.00000000000000e+00
SQRT(A)  (m 1/2):               2.89450116600426e+03
Right Ascen at Week(rad):       -3.49065850398866e-01
Argument of Perigee(rad):       0.00000000000000e+00
Mean Anom(rad):                 -1.26051557088481e-01
Af0(s):                         0.00000000000000e+00
Af1(s/s):                       0.00000000000000e+00
week:                           220
Af1(s/s):                       0.00000000000000e+00
******** Week 220 almanac for PRN-22********
ID:                             22 
Health:                         0 
Eccentricity:                   2.36074357172422e-17
Time of Applicability(s):       259200
Orbital Inclination(rad):       1.13446401379631e+00
Rate of Right Ascen(r/s):       0.00000000000000e+00
SQRT(A)  (m 1/2):               2.89450116600426e+03
Right Ascen at Week(rad):       -1.74532925199433e+00
Argument of Perigee(rad):       0.00000000000000e+00
Mean Anom(rad):                 1.81320316734966e+00
Af0(s):                         0.00000000000000e+00
Af1(s/s):                       0.00000000000000e+00
week:                           220
Af1(s/s):                       0.00000000000000e+00
******** Week 220 almanac for PRN-23********
ID:                             23 
Health:                         0 
Eccentricity:                   1.49348163230082e-16
Time of Applicability(s):       259200
Orbital Inclination(rad):       8.72664625997165e-01
Rate of Right Ascen(r/s):       0.00000000000000e+00
SQRT(A)  (m 1/2):               2.89450116600426e+03
Right Ascen at Week(rad):       -2.24399475256414e+00
Argument of Perigee(rad):       0.00000000000000e+00
Mean Anom(rad):                 2.18522346142555e+00
Af0(s):                         0.00000000000000e+00
Af1(s/s):                       0.00000000000000e+00
week:                           220
Af1(s/s):                       0.00000000000000e+00
******** Week 220 almanac for PRN-24********
ID:                             24 
Health:                         0 
Eccentricity:                   4.65399040739226e-16
Time of Applicability(s):       259200
Orbital Inclination(rad):       1.13446401379631e+00
Rate of Right Ascen(r/s):       0.00000000000000e+00
SQRT(A)  (m 1/2):               2.89450116600426e+03
Right Ascen at Week(rad):       3.49065850398866e-01
Argument of Perigee(rad):       0.00000000000000e+00
Mean Anom(rad):                 -7.46613068908684e-01
Af0(s):                         0.00000000000000e+00
Af1(s/s):                       0.00000000000000e+00
week:                           220
Af1(s/s):                       0.00000000000000e+00
******** Week 220 almanac for PRN-25********
ID:                             25 
Health:                         0 
Eccentricity:                   1.52629122414103e-16
Time of Applicability(s):       259200
Orbital Inclination(rad):       1.13446401379631e+00
Rate of Right Ascen(r/s):       0.00000000000000e+00
SQRT(A)  (m 1/2):               2.89450116600426e+03
Right Ascen at Week(rad):       -2.44346095279206e+00
Argument of Perigee(rad):       0.00000000000000e+00
Mean Anom(rad):                 1.03750127757441e+00
Af0(s):                         0.00000000000000e+00
Af1(s/s):                       0.00000000000000e+00
week:                           220
Af1(s/s):                       0.00000000000000e+00
******** Week 220 almanac for PRN-26********
ID:                             26 
Health:                         0 
Eccentricity:                   3.05258244828205e-16
Time of Applicability(s):       259200
Orbital Inclination(rad):       1.13446401379631e+00
Rate of Right Ascen(r/s):       0.00000000000000e+00
SQRT(A)  (m 1/2):               2.89450116600426e+03
Right Ascen at Week(rad):       -1.74532925199433e+00
Argument of Perigee(rad):       0.00000000000000e+00
Mean Anom(rad):                 1.11507146655193e+00
Af0(s):                         0.00000000000000e+00
Af1(s/s):                       0.00000000000000e+00
week:                           220
Af1(s/s):                       0.00000000000000e+00
******** Week 220 almanac for PRN-27********
ID:                             27 
Health:                         0 
Eccentricity:                   0.00000000000000e+00
Time of Applicability(s):       259200
Orbital Inclination(rad):       9.77384381116825e-01
Rate of Right Ascen(r/s):       0.00000000000000e+00
SQRT(A)  (m 1/2):               5.44058820349418e+03
Right Ascen at Week(rad):       5.67232006898157e+00
Argument of Perigee(rad):       0.00000000000000e+00
Mean Anom(rad):                 1.84655834861000e+00
Af0(s):                         0.00000000000000e+00
Af1(s/s):                       0.00000000000000e+00
week:                           220
******** Week 220 almanac for PRN-28********
ID:                             28 
Health:                         0 
Eccentricity:                   1.62073978340136e-16
Time of Applicability(s):       259200
Orbital Inclination(rad):       1.13446401379631e+00
Rate of Right Ascen(r/s):       0.00000000000000e+00
SQRT(A)  (m 1/2):               2.89450116600426e+03
Right Ascen at Week(rad):       -3.49065850398866e-01
Argument of Perigee(rad):       0.00000000000000e+00
Mean Anom(rad):                 -8.24183257886212e-01
Af0(s):                         0.00000000000000e+00
Af1(s/s):                       0.00000000000000e+00
week:                           220
Af1(s/s):                       0.00000000000000e+00
